KUIPER-00061            
1 64521U 25134X   25256.91670139 -.01198409  00000+0 -60587-1 0  9999
2 64521  51.8830 294.2139 0008476  54.1681 258.3505 15.19460349  4492
KUIPER-00062            
1 64522U 25134Y   25256.83832264  .00005593  00000+0  38691-3 0  9991
2 64522  51.8869 300.3158 0010653  57.0859 303.1138 15.07049902 13816
KUIPER-00063            
1 64523U 25134Z   25256.91670139 -.00012701  00000+0 -13747-2 0  9997
2 64523  51.8945 299.7298 0003406  28.8304  78.0910 14.87174018  4547
KUIPER-00064            
1 64524U 25134AA  25256.91670139  .00001970  00000+0  17300-3 0  9992
2 64524  51.8886 297.5830 0006473 125.7462  50.5600 15.01104770  5579
KUIPER-00065            
1 64525U 25134AB  25256.91670139 -.00019531  00000+0 -22510-2 0  9995
2 64525  51.8975 301.9804 0010484  49.0882 255.9686 14.84887071  5523
KUIPER-00066            
1 64526U 25134AC  25256.83036060  .00007160  00000+0  36264-3 0  9991
2 64526  51.8867 297.2384 0005846  39.0645 321.0755 15.17998295 13851
KUIPER-00069            
1 64816U 25151A   25256.59726013  .00025601  00000+0  70147-3 0  9997
2 64816  51.8791   1.2740 0007210 355.6327   4.4595 15.37120706 10294
KUIPER-00070            
1 64817U 25151B   25256.91670139 -.00047356  00000+0 -48544-2 0  9999
2 64817  51.8970   7.3254 0008282  24.0777 224.5669 14.90099481  4098
